CCSDS_OMM_VERS = 2.0
CREATION_DATE  = 
ORIGINATOR     = 

OBJECT_NAME    = STARLINK-36623
OBJECT_ID      = 2026-020AD
CENTER_NAME    = EARTH
REF_FRAME      = TEME
TIME_SYSTEM    = UTC
MEAN_ELEMENT_THEORY = SGP/SGP4

EPOCH          = 2026-02-07T22:00:00.999936
MEAN_MOTION    = 15.89758590
ECCENTRICITY   = .00014334
INCLINATION    = 42.9991
RA_OF_ASC_NODE = 323.1193
ARG_OF_PERICENTER = 264.3542
MEAN_ANOMALY   = 220.3078

EPHEMERIS_TYPE = 0
CLASSIFICATION_TYPE = U
NORAD_CAT_ID   = 67644
ELEMENT_SET_NO = 999
REV_AT_EPOCH   = 260
BSTAR          = -.61974512E-2
MEAN_MOTION_DOT = -.16631E-1
MEAN_MOTION_DDOT = 0

CCSDS_OMM_VERS = 2.0
CREATION_DATE  = 
ORIGINATOR     = 

OBJECT_NAME    = STARLINK-36619
OBJECT_ID      = 2026-020AE
CENTER_NAME    = EARTH
REF_FRAME      = TEME
TIME_SYSTEM    = UTC
MEAN_ELEMENT_THEORY = SGP/SGP4

EPOCH          = 2026-02-07T22:00:00.999936
MEAN_MOTION    = 15.89587453
ECCENTRICITY   = .00014863
INCLINATION    = 42.9991
RA_OF_ASC_NODE = 323.1276
ARG_OF_PERICENTER = 264.7201
MEAN_ANOMALY   = 216.7544

EPHEMERIS_TYPE = 0
CLASSIFICATION_TYPE = U
NORAD_CAT_ID   = 67645
ELEMENT_SET_NO = 999
REV_AT_EPOCH   = 260
BSTAR          = -.62800005E-2
MEAN_MOTION_DOT = -.1669561E-1
MEAN_MOTION_DDOT = 0

CCSDS_OMM_VERS = 2.0
CREATION_DATE  = 
ORIGINATOR     = 

OBJECT_NAME    = ALSAT-3B
OBJECT_ID      = 2026-021A
CENTER_NAME    = EARTH
REF_FRAME      = TEME
TIME_SYSTEM    = UTC
MEAN_ELEMENT_THEORY = SGP/SGP4

EPOCH          = 2026-02-07T21:30:44.885376
MEAN_MOTION    = 15.23492911
ECCENTRICITY   = .00115433
INCLINATION    = 97.4721
RA_OF_ASC_NODE = 113.3603
ARG_OF_PERICENTER = 236.4419
MEAN_ANOMALY   = 123.5716

EPHEMERIS_TYPE = 0
CLASSIFICATION_TYPE = U
NORAD_CAT_ID   = 67646
ELEMENT_SET_NO = 999
REV_AT_EPOCH   = 118
BSTAR          = .33589938E-3
MEAN_MOTION_DOT = .7958E-4
MEAN_MOTION_DDOT = 0

CCSDS_OMM_VERS = 2.0
CREATION_DATE  = 
ORIGINATOR     = 

OBJECT_NAME    = CZ-2C R/B
OBJECT_ID      = 2026-021B
CENTER_NAME    = EARTH
REF_FRAME      = TEME
TIME_SYSTEM    = UTC
MEAN_ELEMENT_THEORY = SGP/SGP4

EPOCH          = 2026-02-07T21:33:48.274560
MEAN_MOTION    = 15.23256669
ECCENTRICITY   = .01540466
INCLINATION    = 97.6561
RA_OF_ASC_NODE = 113.7662
ARG_OF_PERICENTER = 114.6904
MEAN_ANOMALY   = 247.0459

EPHEMERIS_TYPE = 0
CLASSIFICATION_TYPE = U
NORAD_CAT_ID   = 67647
ELEMENT_SET_NO = 999
REV_AT_EPOCH   = 116
BSTAR          = .4838456E-3
MEAN_MOTION_DOT = .15958E-3
MEAN_MOTION_DDOT = 0

CCSDS_OMM_VERS = 2.0
CREATION_DATE  = 
ORIGINATOR     = 

OBJECT_NAME    = STARLINK-36719
OBJECT_ID      = 2026-022A
CENTER_NAME    = EARTH
REF_FRAME      = TEME
TIME_SYSTEM    = UTC
MEAN_ELEMENT_THEORY = SGP/SGP4

EPOCH          = 2026-02-07T22:00:00.999936
MEAN_MOTION    = 16.00687703
ECCENTRICITY   = .00012499
INCLINATION    = 97.2832
RA_OF_ASC_NODE = 71.2608
ARG_OF_PERICENTER = 75.9402
MEAN_ANOMALY   = 197.7357

EPHEMERIS_TYPE = 0
CLASSIFICATION_TYPE = U
NORAD_CAT_ID   = 67648
ELEMENT_SET_NO = 999
REV_AT_EPOCH   = 210
BSTAR          = -.28882355E-2
MEAN_MOTION_DOT = -.1510752E-1
MEAN_MOTION_DDOT = .70909256E-3

CCSDS_OMM_VERS = 2.0
CREATION_DATE  = 
ORIGINATOR     = 

OBJECT_NAME    = STARLINK-36342
OBJECT_ID      = 2026-022B
CENTER_NAME    = EARTH
REF_FRAME      = TEME
TIME_SYSTEM    = UTC
MEAN_ELEMENT_THEORY = SGP/SGP4

EPOCH          = 2026-02-07T22:00:00.999936
MEAN_MOTION    = 16.00805733
ECCENTRICITY   = .00012115
INCLINATION    = 97.2829
RA_OF_ASC_NODE = 71.2612
ARG_OF_PERICENTER = 77.7887
MEAN_ANOMALY   = 197.2163

EPHEMERIS_TYPE = 0
CLASSIFICATION_TYPE = U
NORAD_CAT_ID   = 67649
ELEMENT_SET_NO = 999
REV_AT_EPOCH   = 210
BSTAR          = -.28475587E-2
MEAN_MOTION_DOT = -.1499655E-1
MEAN_MOTION_DDOT = .70038737E-3

CCSDS_OMM_VERS = 2.0
CREATION_DATE  = 
ORIGINATOR     = 

OBJECT_NAME    = STARLINK-36703
OBJECT_ID      = 2026-022C
CENTER_NAME    = EARTH
REF_FRAME      = TEME
TIME_SYSTEM    = UTC
MEAN_ELEMENT_THEORY = SGP/SGP4

EPOCH          = 2026-02-07T22:00:00.999936
MEAN_MOTION    = 16.00961017
ECCENTRICITY   = .0001223
INCLINATION    = 97.2830
RA_OF_ASC_NODE = 71.2620
ARG_OF_PERICENTER = 76.7170
MEAN_ANOMALY   = 199.8953

EPHEMERIS_TYPE = 0
CLASSIFICATION_TYPE = U
NORAD_CAT_ID   = 67650
ELEMENT_SET_NO = 999
REV_AT_EPOCH   = 210
BSTAR          = -.28140763E-2
MEAN_MOTION_DOT = -.1495279E-1
MEAN_MOTION_DDOT = .69783125E-3

CCSDS_OMM_VERS = 2.0
CREATION_DATE  = 
ORIGINATOR     = 

OBJECT_NAME    = STARLINK-36696
OBJECT_ID      = 2026-022D
CENTER_NAME    = EARTH
REF_FRAME      = TEME
TIME_SYSTEM    = UTC
MEAN_ELEMENT_THEORY = SGP/SGP4

EPOCH          = 2026-02-07T22:00:00.999936
MEAN_MOTION    = 16.01124529
ECCENTRICITY   = .00012501
INCLINATION    = 97.2828
RA_OF_ASC_NODE = 71.2626
ARG_OF_PERICENTER = 74.3073
MEAN_ANOMALY   = 203.9760

EPHEMERIS_TYPE = 0
CLASSIFICATION_TYPE = U
NORAD_CAT_ID   = 67651
ELEMENT_SET_NO = 999
REV_AT_EPOCH   = 210
BSTAR          = -.27781025E-2
MEAN_MOTION_DOT = -.1490111E-1
MEAN_MOTION_DDOT = .69465582E-3

CCSDS_OMM_VERS = 2.0
CREATION_DATE  = 
ORIGINATOR     = 

OBJECT_NAME    = STARLINK-36699
OBJECT_ID      = 2026-022E
CENTER_NAME    = EARTH
REF_FRAME      = TEME
TIME_SYSTEM    = UTC
MEAN_ELEMENT_THEORY = SGP/SGP4

EPOCH          = 2026-02-07T22:00:00.999936
MEAN_MOTION    = 16.01260734
ECCENTRICITY   = .00011624
INCLINATION    = 97.2828
RA_OF_ASC_NODE = 71.2633
ARG_OF_PERICENTER = 83.6627
MEAN_ANOMALY   = 196.0912

EPHEMERIS_TYPE = 0
CLASSIFICATION_TYPE = U
NORAD_CAT_ID   = 67652
ELEMENT_SET_NO = 999
REV_AT_EPOCH   = 210
BSTAR          = -.2737511E-2
MEAN_MOTION_DOT = -.1479953E-1
MEAN_MOTION_DDOT = .68695593E-3

CCSDS_OMM_VERS = 2.0
CREATION_DATE  = 
ORIGINATOR     = 

OBJECT_NAME    = STARLINK-36694
OBJECT_ID      = 2026-022F
CENTER_NAME    = EARTH
REF_FRAME      = TEME
TIME_SYSTEM    = UTC
MEAN_ELEMENT_THEORY = SGP/SGP4

EPOCH          = 2026-02-07T22:00:00.999936
MEAN_MOTION    = 16.01446119
ECCENTRICITY   = .0001211
INCLINATION    = 97.2828
RA_OF_ASC_NODE = 71.2642
ARG_OF_PERICENTER = 85.2019
MEAN_ANOMALY   = 196.3517

EPHEMERIS_TYPE = 0
CLASSIFICATION_TYPE = U
NORAD_CAT_ID   = 67653
ELEMENT_SET_NO = 999
REV_AT_EPOCH   = 210
BSTAR          = -.27071899E-2
MEAN_MOTION_DOT = -.1479255E-1
MEAN_MOTION_DDOT = .6878153E-3

CCSDS_OMM_VERS = 2.0
CREATION_DATE  = 
ORIGINATOR     = 

OBJECT_NAME    = STARLINK-36620
OBJECT_ID      = 2026-022G
CENTER_NAME    = EARTH
REF_FRAME      = TEME
TIME_SYSTEM    = UTC
MEAN_ELEMENT_THEORY = SGP/SGP4

EPOCH          = 2026-02-07T22:00:00.999936
MEAN_MOTION    = 16.01603145
ECCENTRICITY   = .00012619
INCLINATION    = 97.2826
RA_OF_ASC_NODE = 71.2646
ARG_OF_PERICENTER = 75.8275
MEAN_ANOMALY   = 207.3338

EPHEMERIS_TYPE = 0
CLASSIFICATION_TYPE = U
NORAD_CAT_ID   = 67654
ELEMENT_SET_NO = 999
REV_AT_EPOCH   = 210
BSTAR          = -.26794457E-2
MEAN_MOTION_DOT = -.1477429E-1
MEAN_MOTION_DDOT = .68748266E-3

CCSDS_OMM_VERS = 2.0
CREATION_DATE  = 
ORIGINATOR     = 

OBJECT_NAME    = STARLINK-36720
OBJECT_ID      = 2026-022H
CENTER_NAME    = EARTH
REF_FRAME      = TEME
TIME_SYSTEM    = UTC
MEAN_ELEMENT_THEORY = SGP/SGP4

EPOCH          = 2026-02-07T22:00:00.999936
MEAN_MOTION    = 16.01783016
ECCENTRICITY   = .00011372
INCLINATION    = 97.2827
RA_OF_ASC_NODE = 71.2656
ARG_OF_PERICENTER = 83.3117
MEAN_ANOMALY   = 201.6685

EPHEMERIS_TYPE = 0
CLASSIFICATION_TYPE = U
NORAD_CAT_ID   = 67655
ELEMENT_SET_NO = 999
REV_AT_EPOCH   = 210
BSTAR          = -.26225171E-2
MEAN_MOTION_DOT = -.1461292E-1
MEAN_MOTION_DDOT = .67500342E-3

