STARLINK-36623          
1 67644U 26020AD  26038.91667824 -.01663100  00000+0 -61975-2 0  9997
2 67644  42.9991 323.1193 0001433 264.3542 220.3078 15.89758590  2609
STARLINK-36619          
1 67645U 26020AE  26038.91667824 -.01669561  00000+0 -62800-2 0  9993
2 67645  42.9991 323.1276 0001486 264.7201 216.7544 15.89587453  2601
ALSAT-3B                
1 67646U 26021A   26038.89635284  .00007958  00000+0  33590-3 0  9995
2 67646  97.4721 113.3603 0011543 236.4419 123.5716 15.23492911  1183
CZ-2C R/B               
1 67647U 26021B   26038.89847540  .00015958  00000+0  48385-3 0  9993
2 67647  97.6561 113.7662 0154046 114.6904 247.0459 15.23256669  1161
STARLINK-36719          
1 67648U 26022A   26038.91667824 -.01510752  70909-3 -28882-2 0  9996
2 67648  97.2832  71.2608 0001249  75.9402 197.7357 16.00687703  2101
STARLINK-36342          
1 67649U 26022B   26038.91667824 -.01499655  70039-3 -28476-2 0  9998
2 67649  97.2829  71.2612 0001211  77.7887 197.2163 16.00805733  2104
STARLINK-36703          
1 67650U 26022C   26038.91667824 -.01495279  69783-3 -28141-2 0  9991
2 67650  97.2830  71.2620 0001223  76.7170 199.8953 16.00961017  2107
STARLINK-36696          
1 67651U 26022D   26038.91667824 -.01490111  69466-3 -27781-2 0  9999
2 67651  97.2828  71.2626 0001250  74.3073 203.9760 16.01124529  2100
STARLINK-36699          
1 67652U 26022E   26038.91667824 -.01479953  68696-3 -27375-2 0  9994
2 67652  97.2828  71.2633 0001162  83.6627 196.0912 16.01260734  2109
STARLINK-36694          
1 67653U 26022F   26038.91667824 -.01479255  68782-3 -27072-2 0  9990
2 67653  97.2828  71.2642 0001211  85.2019 196.3517 16.01446119  2105
STARLINK-36620          
1 67654U 26022G   26038.91667824 -.01477429  68748-3 -26794-2 0  9994
2 67654  97.2826  71.2646 0001261  75.8275 207.3338 16.01603145  2100
STARLINK-36720          
1 67655U 26022H   26038.91667824 -.01461292  67500-3 -26225-2 0  9990
2 67655  97.2827  71.2656 0001137  83.3117 201.6685 16.01783016  2102
